[{"OBJECT_NAME":"ALOS (DAICHI)","OBJECT_ID":"2006-002A","EPOCH":"2026-03-12T07:03:28.117152","MEAN_MOTION":14.69820577,"ECCENTRICITY":8.416e-5,"INCLINATION":98.122,"RA_OF_ASC_NODE":27.2364,"ARG_OF_PERICENTER":61.0446,"MEAN_ANOMALY":299.0844,"EPHEMERIS_TYPE":0,"CLASSIFICATION_TYPE":"U","NORAD_CAT_ID":28931,"ELEMENT_SET_NO":999,"REV_AT_EPOCH":7386,"BSTAR":0.00031043874,"MEAN_MOTION_DOT":1.805e-5,"MEAN_MOTION_DDOT":0},{"OBJECT_NAME":"H-2A R/B","OBJECT_ID":"2006-002B","EPOCH":"2026-03-12T07:32:57.291072","MEAN_MOTION":15.1648392,"ECCENTRICITY":0.0051932,"INCLINATION":98.2411,"RA_OF_ASC_NODE":218.564,"ARG_OF_PERICENTER":231.9791,"MEAN_ANOMALY":127.6746,"EPHEMERIS_TYPE":0,"CLASSIFICATION_TYPE":"U","NORAD_CAT_ID":28932,"ELEMENT_SET_NO":999,"REV_AT_EPOCH":9483,"BSTAR":0.00053492797,"MEAN_MOTION_DOT":0.00010707,"MEAN_MOTION_DDOT":0},{"OBJECT_NAME":"RESURS-DK 1","OBJECT_ID":"2006-021A","EPOCH":"2026-03-12T04:19:47.407584","MEAN_MOTION":15.12764715,"ECCENTRICITY":0.00016445,"INCLINATION":69.9325,"RA_OF_ASC_NODE":230.5792,"ARG_OF_PERICENTER":160.8628,"MEAN_ANOMALY":199.26,"EPHEMERIS_TYPE":0,"CLASSIFICATION_TYPE":"U","NORAD_CAT_ID":29228,"ELEMENT_SET_NO":999,"REV_AT_EPOCH":8790,"BSTAR":0.00022744502,"MEAN_MOTION_DOT":3.892e-5,"MEAN_MOTION_DDOT":0},{"OBJECT_NAME":"CZ-4B R/B","OBJECT_ID":"2006-046C","EPOCH":"2026-03-12T02:46:52.391424","MEAN_MOTION":15.16932678,"ECCENTRICITY":0.00316798,"INCLINATION":97.5596,"RA_OF_ASC_NODE":116.0188,"ARG_OF_PERICENTER":258.4841,"MEAN_ANOMALY":101.2834,"EPHEMERIS_TYPE":0,"CLASSIFICATION_TYPE":"U","NORAD_CAT_ID":29507,"ELEMENT_SET_NO":999,"REV_AT_EPOCH":6041,"BSTAR":0.0002381562,"MEAN_MOTION_DOT":4.686e-5,"MEAN_MOTION_DDOT":0},{"OBJECT_NAME":"CZ-2C R/B","OBJECT_ID":"2007-010B","EPOCH":"2026-03-12T06:17:25.325952","MEAN_MOTION":14.20247341,"ECCENTRICITY":0.00578717,"INCLINATION":98.3979,"RA_OF_ASC_NODE":184.4117,"ARG_OF_PERICENTER":286.9714,"MEAN_ANOMALY":72.5126,"EPHEMERIS_TYPE":0,"CLASSIFICATION_TYPE":"U","NORAD_CAT_ID":31114,"ELEMENT_SET_NO":999,"REV_AT_EPOCH":98008,"BSTAR":9.7994521e-5,"MEAN_MOTION_DOT":1.71e-6,"MEAN_MOTION_DDOT":0},{"OBJECT_NAME":"COSMO-SKYMED 1","OBJECT_ID":"2007-023A","EPOCH":"2026-03-12T06:31:48.309024","MEAN_MOTION":14.96558699,"ECCENTRICITY":0.00014812,"INCLINATION":97.8879,"RA_OF_ASC_NODE":262.3244,"ARG_OF_PERICENTER":97.9849,"MEAN_ANOMALY":262.154,"EPHEMERIS_TYPE":0,"CLASSIFICATION_TYPE":"U","NORAD_CAT_ID":31598,"ELEMENT_SET_NO":999,"REV_AT_EPOCH":1529,"BSTAR":0.0003921465,"MEAN_MOTION_DOT":4.403e-5,"MEAN_MOTION_DDOT":0},{"OBJECT_NAME":"COSMOS 2428","OBJECT_ID":"2007-029A","EPOCH":"2026-03-12T07:05:50.840448","MEAN_MOTION":14.12946675,"ECCENTRICITY":0.00092136,"INCLINATION":70.9436,"RA_OF_ASC_NODE":197.8732,"ARG_OF_PERICENTER":274.485,"MEAN_ANOMALY":85.5219,"EPHEMERIS_TYPE":0,"CLASSIFICATION_TYPE":"U","NORAD_CAT_ID":31792,"ELEMENT_SET_NO":999,"REV_AT_EPOCH":96446,"BSTAR":4.26385e-5,"MEAN_MOTION_DOT":3.2e-7,"MEAN_MOTION_DDOT":0},{"OBJECT_NAME":"SL-16 R/B","OBJECT_ID":"2007-029B","EPOCH":"2026-03-12T07:41:06.241632","MEAN_MOTION":14.14834186,"ECCENTRICITY":0.00022662,"INCLINATION":70.9758,"RA_OF_ASC_NODE":166.8558,"ARG_OF_PERICENTER":275.9418,"MEAN_ANOMALY":141.1099,"EPHEMERIS_TYPE":0,"CLASSIFICATION_TYPE":"U","NORAD_CAT_ID":31793,"ELEMENT_SET_NO":999,"REV_AT_EPOCH":96574,"BSTAR":0.00010489741,"MEAN_MOTION_DOT":1.55e-6,"MEAN_MOTION_DDOT":0},{"OBJECT_NAME":"KORONAS-FOTON","OBJECT_ID":"2009-003A","EPOCH":"2026-03-12T00:48:20.661408","MEAN_MOTION":15.43371632,"ECCENTRICITY":0.00113978,"INCLINATION":82.4278,"RA_OF_ASC_NODE":273.4409,"ARG_OF_PERICENTER":141.897,"MEAN_ANOMALY":218.3085,"EPHEMERIS_TYPE":0,"CLASSIFICATION_TYPE":"U","NORAD_CAT_ID":33504,"ELEMENT_SET_NO":999,"REV_AT_EPOCH":94610,"BSTAR":0.0002195649,"MEAN_MOTION_DOT":9.856e-5,"MEAN_MOTION_DDOT":0},{"OBJECT_NAME":"CZ-2C R/B","OBJECT_ID":"2011-030B","EPOCH":"2026-03-12T07:59:25.549440","MEAN_MOTION":14.81234954,"ECCENTRICITY":0.00521511,"INCLINATION":97.8542,"RA_OF_ASC_NODE":28.5429,"ARG_OF_PERICENTER":343.4508,"MEAN_ANOMALY":178.4248,"EPHEMERIS_TYPE":0,"CLASSIFICATION_TYPE":"U","NORAD_CAT_ID":37731,"ELEMENT_SET_NO":999,"REV_AT_EPOCH":79048,"BSTAR":0.00027362895,"MEAN_MOTION_DOT":2.127e-5,"MEAN_MOTION_DDOT":0},{"OBJECT_NAME":"H-2A R/B","OBJECT_ID":"2012-025E","EPOCH":"2026-03-11T20:52:56.099136","MEAN_MOTION":14.95189354,"ECCENTRICITY":0.00432038,"INCLINATION":98.4739,"RA_OF_ASC_NODE":38.0911,"ARG_OF_PERICENTER":307.1184,"MEAN_ANOMALY":52.609,"EPHEMERIS_TYPE":0,"CLASSIFICATION_TYPE":"U","NORAD_CAT_ID":38341,"ELEMENT_SET_NO":999,"REV_AT_EPOCH":74854,"BSTAR":0.00032068932,"MEAN_MOTION_DOT":3.519e-5,"MEAN_MOTION_DDOT":0},{"OBJECT_NAME":"SHIJIAN-16 (SJ-16)","OBJECT_ID":"2013-057A","EPOCH":"2026-03-12T07:27:14.277888","MEAN_MOTION":14.92361141,"ECCENTRICITY":0.00154538,"INCLINATION":74.9729,"RA_OF_ASC_NODE":180.1267,"ARG_OF_PERICENTER":105.6502,"MEAN_ANOMALY":254.6393,"EPHEMERIS_TYPE":0,"CLASSIFICATION_TYPE":"U","NORAD_CAT_ID":39358,"ELEMENT_SET_NO":999,"REV_AT_EPOCH":67189,"BSTAR":0.00030012836,"MEAN_MOTION_DOT":3.049e-5,"MEAN_MOTION_DDOT":0},{"OBJECT_NAME":"SL-4 R/B","OBJECT_ID":"2014-021B","EPOCH":"2026-03-11T23:11:23.282880","MEAN_MOTION":15.39266038,"ECCENTRICITY":0.0097301,"INCLINATION":51.6083,"RA_OF_ASC_NODE":326.1718,"ARG_OF_PERICENTER":111.2955,"MEAN_ANOMALY":249.8451,"EPHEMERIS_TYPE":0,"CLASSIFICATION_TYPE":"U","NORAD_CAT_ID":39679,"ELEMENT_SET_NO":999,"REV_AT_EPOCH":65662,"BSTAR":0.00033848,"MEAN_MOTION_DOT":0.00015383,"MEAN_MOTION_DDOT":0},{"OBJECT_NAME":"ALOS-2","OBJECT_ID":"2014-029A","EPOCH":"2026-03-12T06:55:52.387392","MEAN_MOTION":14.79517919,"ECCENTRICITY":0.00014715,"INCLINATION":97.9185,"RA_OF_ASC_NODE":169.8479,"ARG_OF_PERICENTER":96.9587,"MEAN_ANOMALY":263.1792,"EPHEMERIS_TYPE":0,"CLASSIFICATION_TYPE":"U","NORAD_CAT_ID":39766,"ELEMENT_SET_NO":999,"REV_AT_EPOCH":63725,"BSTAR":0.00043047654,"MEAN_MOTION_DOT":3.168e-5,"MEAN_MOTION_DDOT":0},{"OBJECT_NAME":"YAOGAN-29","OBJECT_ID":"2015-069A","EPOCH":"2026-03-12T06:58:57.707616","MEAN_MOTION":14.82998618,"ECCENTRICITY":0.00017202,"INCLINATION":98.0144,"RA_OF_ASC_NODE":99.7277,"ARG_OF_PERICENTER":31.586,"MEAN_ANOMALY":328.5456,"EPHEMERIS_TYPE":0,"CLASSIFICATION_TYPE":"U","NORAD_CAT_ID":41038,"ELEMENT_SET_NO":999,"REV_AT_EPOCH":55626,"BSTAR":9.0767629e-5,"MEAN_MOTION_DOT":6.83e-6,"MEAN_MOTION_DDOT":0},{"OBJECT_NAME":"ASTRO-H (HITOMI)","OBJECT_ID":"2016-012A","EPOCH":"2026-03-11T22:44:39.920064","MEAN_MOTION":15.10023348,"ECCENTRICITY":0.00097573,"INCLINATION":31.0006,"RA_OF_ASC_NODE":341.9769,"ARG_OF_PERICENTER":353.9535,"MEAN_ANOMALY":6.0985,"EPHEMERIS_TYPE":0,"CLASSIFICATION_TYPE":"U","NORAD_CAT_ID":41337,"ELEMENT_SET_NO":999,"REV_AT_EPOCH":55257,"BSTAR":0.00020065392,"MEAN_MOTION_DOT":3.441e-5,"MEAN_MOTION_DDOT":0}]
